STARLINK-32460          
1 61914U 24207C   26068.01416227  .00028675  00000+0  10471-2 0  9993
2 61914  43.0002 285.1359 0001700 273.0231  87.0426 15.27590764 74623
TRANSPORTER-12 OBJECT BT
1 62674U 25009BT  26068.71416991  .00013824  00000+0  51029-3 0  9998
2 62674  97.4094 151.5992 0003682 313.5044  46.5889 15.27872239121360
